DMSP 5D-3 F16 (USA 172) 
1 28054U 03048A   26162.87163516 -.00000004  00000+0  21793-4 0  9998
2 28054  98.9891 186.6647 0007488 153.9647 329.6139 14.14482634168730
METEOSAT-9 (MSG-2)      
1 28912U 05049B   26161.84794816  .00000136  00000+0  00000+0 0  9991
2 28912   9.3464  54.2281 0001608 348.0762 207.8226  1.00269523  6930
DMSP 5D-3 F17 (USA 191) 
1 29522U 06050A   26162.86634688  .00000021  00000+0  33014-4 0  9994
2 29522  98.7378 169.5453 0011287  73.0123 287.2287 14.14992284 11677
FENGYUN 3A              
1 32958U 08026A   26162.69057556  .00000044  00000+0  41615-4 0  9991
2 32958  98.6883 103.6266 0009361 138.1818 222.0075 14.19570066934625
GOES 14                 
1 35491U 09033A   26162.72319649 -.00000254  00000+0  00000+0 0  9995
2 35491   1.6751  83.1068 0001793   8.1826 214.0974  1.00112681  6536
DMSP 5D-3 F18 (USA 210) 
1 35951U 09057A   26162.83737145  .00000228  00000+0  14132-3 0  9994
2 35951  98.9035 143.6181 0009845 266.5576  93.4471 14.14893809858833
EWS-G2 (GOES 15)        
1 36411U 10008A   26162.79364162  .00000034  00000+0  00000+0 0  9994
2 36411   1.2622  82.9418 0005383  40.5345 126.0168  1.00275521 59586
COMS 1                  
1 36744U 10032A   26154.99142485 -.00000334  00000+0  00000+0 0  9999
2 36744   4.7750  75.5286 0001016   4.5847 297.3769  1.00270643 50953
FENGYUN 3B              
1 37214U 10059A   26162.86777962 -.00000220  00000+0 -90607-4 0  9992
2 37214  98.9626 208.8597 0021621 199.3091 269.3555 14.14838566806670
SUOMI NPP               
1 37849U 11061A   26162.84262845  .00000038  00000+0  39264-4 0  9994
2 37849  98.7954 103.7552 0001828  18.8262 341.2981 14.19516280757682
METEOSAT-10 (MSG-3)     
1 38552U 12035B   26162.33808205  .00000010  00000+0  00000+0 0  9999
2 38552   4.6571  61.0428 0001465 331.4803 349.1316  1.00275943 50796
METOP-B                 
1 38771U 12049A   26162.83988208  .00000083  00000+0  57760-4 0  9994
2 38771  98.6506 214.4456 0002558  32.5058 327.6276 14.21431247712508
INSAT-3D                
1 39216U 13038B   26162.72007648 -.00000323  00000+0  00000+0 0  9994
2 39216   1.9112  82.6075 0000636 312.4002 253.8060  1.00271907 47026
FENGYUN 3C              
1 39260U 13052A   26162.88464769  .00000076  00000+0  59816-4 0  9995
2 39260  98.4976 137.0030 0015507  42.1798 318.0567 14.15753908657818
METEOR-M 2              
1 40069U 14037A   26162.86634891 -.00000329  00000+0 -13121-3 0  9992
2 40069  98.5108 138.7929 0006931  57.6830 302.5018 14.21458577618568
HIMAWARI-8              
1 40267U 14060A   26162.72232984 -.00000259  00000+0  00000+0 0  9999
2 40267   0.0146 329.5501 0000730 141.7884 189.4217  1.00269580 42706
FENGYUN 2G              
1 40367U 14090A   26162.78549207 -.00000290  00000+0  00000+0 0  9993
2 40367   5.6239  72.8828 0003763 152.7025  56.9684  1.00274998 41949
METEOSAT-11 (MSG-4)     
1 40732U 15034A   26162.69638027  .00000079  00000+0  00000+0 0  9991
2 40732   3.1883  71.1420 0001744   7.6014  81.5005  1.00278631  7161
ELEKTRO-L 2             
1 41105U 15074A   26161.98080809 -.00000103  00000+0  00000+0 0  9999
2 41105   6.6770  70.6004 0000814 270.8793 256.4532  1.00271253 38442
SENTINEL-3A             
1 41335U 16011A   26162.81656269  .00000074  00000+0  48714-4 0  9993
2 41335  98.6249 230.2771 0001377 103.3671 256.7663 14.26738443537290
INSAT-3DR               
1 41752U 16054A   26162.49519205 -.00000060  00000+0  00000+0 0  9992
2 41752   0.0908  87.1653 0010567 186.8122 238.1118  1.00270275 35764
HIMAWARI-9              
1 41836U 16064A   26162.72232984 -.00000258  00000+0  00000+0 0  9997
2 41836   0.0483 150.8117 0000786 345.7408 164.3304  1.00271004 35154
GOES 16                 
1 41866U 16071A   26162.67376016 -.00000074  00000+0  00000+0 0  9993
2 41866   0.3260  85.5664 0000269 302.7889   9.5344  1.00270209 35044
FENGYUN 4A              
1 41882U 16077A   26162.86160370 -.00000341  00000+0  00000+0 0  9999
2 41882   2.3079  80.3531 0008538 151.7042 102.1069  1.00271714 34874
CYGFM05                 
1 41884U 16078A   26162.66381063  .00022604  00000+0  30903-3 0  9998
2 41884  34.9572 297.1583 0006776  93.9332 266.2167 15.56428769527891
CYGFM04                 
1 41885U 16078B   26162.52360392  .00030030  00000+0  34199-3 0  9999
2 41885  34.9326 266.0600 0006085 140.2617 219.8554 15.61202378528111
CYGFM02                 
1 41886U 16078C   26162.53505135  .00033609  00000+0  34079-3 0  9999
2 41886  34.9406 260.6830 0007070 141.7664 218.3565 15.64140533528280
CYGFM01                 
1 41887U 16078D   26162.65492198  .00023530  00000+0  31369-3 0  9998
2 41887  34.9403 298.3195 0006567  86.8683 273.2792 15.57096635527848
CYGFM08                 
1 41888U 16078E   26162.62383803  .00027747  00000+0  33436-3 0  9999
2 41888  34.9433 278.2499 0007813 121.6627 238.4861 15.59731170528109
CYGFM07                 
1 41890U 16078G   26162.51932837  .00025052  00000+0  30112-3 0  9992
2 41890  34.9452 267.2924 0006376 139.1708 220.9495 15.59825422528115
CYGFM03                 
1 41891U 16078H   26162.49030441  .00027148  00000+0  32628-3 0  9992
2 41891  34.9400 269.4243 0005939 125.5783 234.5496 15.59818699528089
